[{"OBJECT_NAME":"JILIN-1 GAOFEN 3A","OBJECT_ID":"2019-032C","EPOCH":"2026-03-09T17:53:24.364896","MEAN_MOTION":15.3027131,"ECCENTRICITY":0.00026181,"INCLINATION":44.9746,"RA_OF_ASC_NODE":183.2861,"ARG_OF_PERICENTER":111.29,"MEAN_ANOMALY":248.8263,"EPHEMERIS_TYPE":0,"CLASSIFICATION_TYPE":"U","NORAD_CAT_ID":44312,"ELEMENT_SET_NO":999,"REV_AT_EPOCH":37259,"BSTAR":0.00055381133,"MEAN_MOTION_DOT":0.00016264,"MEAN_MOTION_DDOT":0},{"OBJECT_NAME":"STARLINK-31688","OBJECT_ID":"2024-062N","EPOCH":"2026-03-09T19:38:19.347072","MEAN_MOTION":15.30190387,"ECCENTRICITY":0.00013796,"INCLINATION":53.1597,"RA_OF_ASC_NODE":257.7291,"ARG_OF_PERICENTER":122.6372,"MEAN_ANOMALY":237.4762,"EPHEMERIS_TYPE":0,"CLASSIFICATION_TYPE":"U","NORAD_CAT_ID":59386,"ELEMENT_SET_NO":999,"REV_AT_EPOCH":10961,"BSTAR":-8.272869e-6,"MEAN_MOTION_DOT":-6.04e-6,"MEAN_MOTION_DDOT":0}]
